NORAD_CAT_ID,OBJECT_NAME,OBJECT_TYPE,EPOCH,MEAN_MOTION,ECCENTRICITY,INCLINATION,RA_OF_ASC_NODE,ARG_OF_PERICENTER,MEAN_ANOMALY,BSTAR,MEAN_MOTION_DOT,MEAN_MOTION_DDOT,TLE_LINE0,TLE_LINE1,TLE_LINE2,SEMIMAJOR_AXIS,PERIOD,APOGEE,PERIGEE,DECAYED
53799.0,STARLINK-4710,PAYLOAD,2022-11-26 06:00:00,15.49870419,0.0001188,53.2148,251.1262,78.7847,2.4997,0.0012846,0.00073102,0.0,0 STARLINK-4710,1 53799U 22111AC  22330.25001157  .00073102  00000-0  12846-2 0  9997,2 53799  53.2148 251.1262 0001188  78.7847   2.4997 15.49870419 11894,6795.2419999999975,92.911,417.914,416.3,0.0
53799.0,STARLINK-4710,PAYLOAD,2022-11-26 14:00:01,15.50042746,0.0001101,53.216,249.5309,84.3423,57.8617,-0.013534,-0.00715716,0.0,0 STARLINK-4710,1 53799U 22111AC  22330.58334491 -.00715716  00000-0 -13534-1 0  9993,2 53799  53.2160 249.5309 0001101  84.3423  57.8617 15.50042746 11955,6794.738,92.901,417.351,415.855,0.0
53799.0,STARLINK-4710,PAYLOAD,2022-11-26 22:00:00,15.49702384,0.0001399,53.2172,247.938,96.769,106.1983,-0.018314,-0.00947564,0.0,0 STARLINK-4710,1 53799U 22111AC  22330.91667824 -.00947564  00000-0 -18314-1 0  9998,2 53799  53.2172 247.9380 0001399  96.7690 106.1983 15.49702384 12001,6795.733,92.921,418.549,416.647,0.0
53799.0,STARLINK-4710,PAYLOAD,2022-11-27 06:00:00,15.49099449,0.0001228,53.2166,246.348,84.5638,178.6519,-0.024935,-0.01249292,0.0,0 STARLINK-4710,1 53799U 22111AC  22331.25001157 -.01249292  00000-0 -24935-1 0  9997,2 53799  53.2166 246.3480 0001228  84.5638 178.6519 15.49099449 12051,6797.496,92.957,420.196,418.526,0.0
53799.0,STARLINK-4710,PAYLOAD,2022-11-27 14:00:01,15.482076,0.0001028,53.2171,244.756,89.4769,233.1562,-0.023458,-0.01148075,0.0,0 STARLINK-4710,1 53799U 22111AC  22331.58334491 -.01148075  00000-0 -23458-1 0  9999,2 53799  53.2171 244.7560 0001028  89.4769 233.1562 15.48207600  1305,6800.106,93.011,422.671,421.272,0.0
53799.0,STARLINK-4710,PAYLOAD,2022-11-27 22:00:00,15.47420015,0.000105,53.2168,243.1681,90.694,290.3225,-0.024915,-0.01182865,0.0,0 STARLINK-4710,1 53799U 22111AC  22331.91667824 -.01182865  00000-0 -24915-1 0  9999,2 53799  53.2168 243.1681 0001050  90.6940 290.3225 15.47420015  1305,6802.4140000000025,93.058,424.99300000000005,423.564,0.0
53799.0,STARLINK-4710,PAYLOAD,2022-11-28 00:00:00,15.47192287,0.0001208,53.217,242.7721,82.6007,42.8746,-0.024372,-0.01150902,0.0,0 STARLINK-4710,1 53799U 22111AC  22332.00001157 -.01150902  00000-0 -24372-1 0  9995,2 53799  53.2170 242.7721 0001208  82.6007  42.8746 15.47192287 12169,6803.081,93.072,425.768,424.124,0.0
53799.0,STARLINK-4710,PAYLOAD,2022-11-28 22:00:01,15.44982144,0.0001242,53.2169,238.4157,98.999,91.404,-0.027202,-0.01186457,0.0,0 STARLINK-4710,1 53799U 22111AC  22332.91668981 -.01186457  00000-0 -27202-1 0  9998,2 53799  53.2169 238.4157 0001242  98.9990  91.4040 15.44982144 12311,6809.568,93.205,432.278,430.587,0.0
53799.0,STARLINK-4710,PAYLOAD,2022-11-29 14:00:01,15.43324519,0.000105,53.217,235.2568,78.5403,219.8708,-0.027683,-0.01144731,0.0,0 STARLINK-4710,1 53799U 22111AC  22333.58335648 -.01144731  00000-0 -27683-1 0  9995,2 53799  53.2170 235.2568 0001050  78.5403 219.8708 15.43324519  1303,6814.443,93.305,437.023,435.592,0.0
53799.0,STARLINK-4710,PAYLOAD,2022-11-29 22:00:00,15.42540117,0.0001065,53.217,233.6808,100.437,250.4246,-0.029502,-0.01184157,0.0,0 STARLINK-4710,1 53799U 22111AC  22333.91667824 -.01184157  00000-0 -29502-1 0  9994,2 53799  53.2170 233.6808 0001065 100.4370 250.4246 15.42540117 12466,6816.753000000002,93.353,439.344,437.892,0.0
53799.0,STARLINK-4710,PAYLOAD,2022-11-30 14:00:01,15.40879567,0.0001149,53.2174,230.5326,96.5888,356.481,-0.029933,-0.01140327,0.0,0 STARLINK-4710,1 53799U 22111AC  22334.58335648 -.01140327  00000-0 -29933-1 0  9993,2 53799  53.2174 230.5326 0001149  96.5888 356.4810 15.40879567  1300,6821.649,93.453,444.298,442.73,0.0
53799.0,STARLINK-4710,PAYLOAD,2022-11-30 22:00:00,15.40065503,0.0001281,53.2175,228.9635,93.0981,49.5032,-0.030731,-0.0113951,0.0,0 STARLINK-4710,1 53799U 22111AC  22334.91667824 -.01139510  00000-0 -30731-1 0  9994,2 53799  53.2175 228.9635 0001281  93.0981  49.5032 15.40065503  1301,6824.053000000001,93.503,446.792,445.044,0.0
53799.0,STARLINK-4710,PAYLOAD,2022-12-01 06:00:00,15.39253448,0.0001404,53.2172,227.3952,64.9683,126.2504,-0.031635,-0.01141713,0.0,0 STARLINK-4710,1 53799U 22111AC  22335.25001157 -.01141713  00000-0 -31635-1 0  9995,2 53799  53.2172 227.3952 0001404  64.9683 126.2504 15.39253448 12670,6826.453,93.552,449.276,447.359,0.0
53799.0,STARLINK-4710,PAYLOAD,2022-12-01 14:00:01,15.38438103,0.0001278,53.2173,225.8266,88.31700000000002,150.5441,-0.03242,-0.01139219,0.0,0 STARLINK-4710,1 53799U 22111AC  22335.58334491 -.01139219  00000-0 -32420-1 0  9992,2 53799  53.2173 225.8266 0001278  88.3170 150.5441 15.38438103  1302,6828.864000000001,93.601,451.602,449.857,0.0
53799.0,STARLINK-4710,PAYLOAD,2022-12-01 22:00:00,15.37668148,0.0001242,53.2169,224.2634,104.3806,181.1195,-0.035086,-0.01196505,0.0,0 STARLINK-4710,1 53799U 22111AC  22335.91667824 -.01196505  00000-0 -35086-1 0  9990,2 53799  53.2169 224.2634 0001242 104.3806 181.1195 15.37668148  1304,6831.144,93.648,453.857,452.16,0.0
53799.0,STARLINK-4710,PAYLOAD,2022-12-02 06:00:00,15.36812928,0.0001138,53.2171,222.7006,71.7877,259.4189,-0.034286,-0.01142137,0.0,0 STARLINK-4710,1 53799U 22111AC  22336.25001157 -.01142137  00000-0 -34286-1 0  9992,2 53799  53.2171 222.7006 0001138  71.7877 259.4189 15.36812928 12829,6833.678000000001,93.7,456.321,454.765,0.0
53799.0,STARLINK-4710,PAYLOAD,2022-12-02 14:00:01,15.36014525,0.0001126,53.2166,221.1385,79.8217,296.0848,-0.03588,-0.01162705,0.0,0 STARLINK-4710,1 53799U 22111AC  22336.58334491 -.01162705  00000-0 -35880-1 0  9992,2 53799  53.2166 221.1385 0001126  79.8217 296.0848 15.36014525  1307,6836.045999999999,93.749,458.68,457.141,0.0
53799.0,STARLINK-4710,PAYLOAD,2022-12-02 22:00:00,15.35189867,0.0001166,53.2169,219.5806,95.7465,323.8941,-0.036328,-0.01147741,0.0,0 STARLINK-4710,1 53799U 22111AC  22336.91667824 -.01147741  00000-0 -36328-1 0  9999,2 53799  53.2169 219.5806 0001166  95.7465 323.8941 15.35189867  1309,6838.494000000002,93.799,461.156,459.561,0.0
53799.0,STARLINK-4710,PAYLOAD,2022-12-03 08:00:01,15.34170173,0.0001281,53.2168,217.6342,82.7442,120.1849,-0.037442,-0.01145151,0.0,0 STARLINK-4710,1 53799U 22111AC  22337.33334491 -.01145151  00000-0 -37442-1 0  9998,2 53799  53.2168 217.6342 0001281  82.7442 120.1849 15.34170173 12992,6841.523,93.862,464.265,462.512,0.0
53799.0,STARLINK-4710,PAYLOAD,2022-12-03 14:00:01,15.33572702,0.0001338,53.2167,216.4673,80.7538,63.4073,-0.038779,-0.01162033,0.0,0 STARLINK-4710,1 53799U 22111AC  22337.58334491 -.01162033  00000-0 -38779-1 0  9997,2 53799  53.2167 216.4673 0001338  80.7538  63.4073 15.33572702  1306,6843.3,93.898,466.081,464.25,0.0
53799.0,STARLINK-4710,PAYLOAD,2022-12-03 22:00:00,15.32754014,0.0001354,53.2169,214.9151,99.2491,85.7095,-0.039529,-0.011548,0.0,0 STARLINK-4710,1 53799U 22111AC  22337.91667824 -.01154800  00000-0 -39529-1 0  9990,2 53799  53.2169 214.9151 0001354  99.2491  85.7095 15.32754014  1301,6845.736999999999,93.949,468.529,466.675,0.0
53799.0,STARLINK-4710,PAYLOAD,2022-12-04 06:00:00,15.31949565,0.0001328,53.2164,213.3641,85.9262,138.8454,-0.04103,-0.01167335,0.0,0 STARLINK-4710,1 53799U 22111AC  22338.25001157 -.01167335  00000-0 -41030-1 0  9996,2 53799  53.2164 213.3641 0001328  85.9262 138.8454 15.31949565 13131,6848.1330000000025,93.998,470.908,469.089,0.0
53799.0,STARLINK-4710,PAYLOAD,2022-12-04 14:00:01,15.31130032,0.0001293,53.2167,211.8132,84.3649,179.2499,-0.041765,-0.01158833,0.0,0 STARLINK-4710,1 53799U 22111AC  22338.58334491 -.01158833  00000-0 -41765-1 0  9990,2 53799  53.2167 211.8132 0001293  84.3649 179.2499 15.31130032  1300,6850.5769999999975,94.048,473.327,471.556,0.0
53799.0,STARLINK-4710,PAYLOAD,2022-12-04 22:00:00,15.30314031,0.0001303,53.2168,210.2673,103.9916,197.4855,-0.042714,-0.01155612,0.0,0 STARLINK-4710,1 53799U 22111AC  22338.91667824 -.01155612  00000-0 -42714-1 0  9993,2 53799  53.2168 210.2673 0001303 103.9916 197.4855 15.30314031  1301,6853.012,94.098,475.77,473.984,0.0
53799.0,STARLINK-4710,PAYLOAD,2022-12-05 14:00:01,15.286930300000002,0.0001212,53.2167,207.1766,69.9744,304.3543,-0.04526,-0.01163595,0.0,0 STARLINK-4710,1 53799U 22111AC  22339.58335648 -.01163595  00000-0 -45260-1 0  9991,2 53799  53.2167 207.1766 0001212  69.9744 304.3543 15.28693030  1306,6857.855,94.198,480.551,478.889,0.0
53799.0,STARLINK-4710,PAYLOAD,2022-12-05 16:00:00,15.28472123,0.0001361,53.2172,206.7909,67.3461,45.7519,-0.044573,-0.01140404,0.0,0 STARLINK-4710,1 53799U 22111AC  22339.66667824 -.01140404  00000-0 -44573-1 0  9994,2 53799  53.2172 206.7909 0001361  67.3461  45.7519 15.28472123 13354,6858.516,94.212,481.315,479.448,0.0
53799.0,STARLINK-4710,PAYLOAD,2022-12-05 22:00:01,15.27860569,0.0001322,53.2174,205.6363,60.6506,348.6156,-0.045376,-0.01139384,0.0,0 STARLINK-4710,1 53799U 22111AC  22339.91668981 -.01139384  00000-0 -45376-1 0  9994,2 53799  53.2174 205.6363 0001322  60.6506 348.6156 15.27860569  1309,6860.346,94.249,483.11800000000005,481.304,0.0
53799.0,STARLINK-4710,PAYLOAD,2022-12-06 14:00:01,15.26227179,0.0001284,53.2169,202.5571,71.6626,44.5304,-0.047285,-0.01130333,0.0,0 STARLINK-4710,1 53799U 22111AC  22340.58335648 -.01130333  00000-0 -47285-1 0  9996,2 53799  53.2169 202.5571 0001284  71.6626  44.5304 15.26227179  1302,6865.24,94.35,487.986,486.223,0.0
53799.0,STARLINK-4710,PAYLOAD,2022-12-06 16:00:00,15.26028462,0.0001388,53.2172,202.1732,78.2118,136.0055,-0.047839,-0.01151286,0.0,0 STARLINK-4710,1 53799U 22111AC  22340.66667824 -.01151286  00000-0 -47839-1 0  9994,2 53799  53.2172 202.1732 0001388  78.2118 136.0055 15.26028462 13504,6865.8359999999975,94.363,488.654,486.74800000000016,0.0
